[{"OBJECT_NAME":"SWARM A","OBJECT_ID":"2013-067B","EPOCH":"2026-03-09T20:26:59.375904","MEAN_MOTION":15.48754493,"ECCENTRICITY":0.00030769,"INCLINATION":87.3288,"RA_OF_ASC_NODE":93.0977,"ARG_OF_PERICENTER":94.0007,"MEAN_ANOMALY":266.1604,"EPHEMERIS_TYPE":0,"CLASSIFICATION_TYPE":"U","NORAD_CAT_ID":39452,"ELEMENT_SET_NO":999,"REV_AT_EPOCH":69086,"BSTAR":0.00022550093,"MEAN_MOTION_DOT":0.00012133,"MEAN_MOTION_DDOT":0},{"OBJECT_NAME":"ARIANE 40+3 R\/B","OBJECT_ID":"1995-033D","EPOCH":"2026-03-09T22:16:15.098592","MEAN_MOTION":15.47222333,"ECCENTRICITY":0.00073585,"INCLINATION":98.2878,"RA_OF_ASC_NODE":273.1988,"ARG_OF_PERICENTER":36.2046,"MEAN_ANOMALY":323.9698,"EPHEMERIS_TYPE":0,"CLASSIFICATION_TYPE":"U","NORAD_CAT_ID":23608,"ELEMENT_SET_NO":999,"REV_AT_EPOCH":66682,"BSTAR":0.0008304958,"MEAN_MOTION_DOT":0.0004236,"MEAN_MOTION_DDOT":0}]
